[
 {
  "type": "Feature",
  "id": "annotation",
  "geometry": {
   "type": "Point",
   "coordinates": [
    [
     4662.079823319473,
     4856.428400164539
    ],
    [
     4403.18595052085,
     5276.439598481228
    ],
    [
     5322.800367088623,
     4545.871829983461
    ],
    [
     5817.87296139521,
     3876.205195078854
    ],
    [
     5238.825350166658,
     3778.0564987738885
    ],
    [
     5620.425808851424,
     2818.0083673551053
    ],
    [
     5580.5158815795785,
     2155.7744532995257
    ],
    [
     5327.455144849616,
     1378.5046052853359
    ],
    [
     4819.768995249786,
     841.0101507234841
    ],
    [
     4431.152199692732,
     439.2503635227831
    ],
    [
     3374.1322881875803,
     286.44863755977025
    ],
    [
     2275.704460421297,
     415.7604510281369
    ],
    [
     1743.5076006869847,
     738.7164009479494
    ],
    [
     1211.9524913540613,
     1137.3664764903735
    ],
    [
     772.6752082342571,
     1729.8313935426586
    ],
    [
     547.7912616501426,
     2390.7532999786276
    ],
    [
     142.26456879573357,
     2102.8627356246266
    ],
    [
     468.14232062464924,
     2879.3810158449514
    ],
    [
     675.5882539844317,
     3824.0572603201413
    ],
    [
     1164.8863319905497,
     4536.931051673382
    ],
    [
     1186.6632822470265,
     5093.50189273518
    ],
    [
     1571.4785577571968,
     5175.930608158737
    ],
    [
     2278.0740631309245,
     5322.114004552104
    ],
    [
     3100.6038401046158,
     5894.44931332338
    ],
    [
     2093.2918389229067,
     5680.750504482018
    ],
    [
     3901.0535806204275,
     5921.318220996711
    ],
    [
     3237.428339963586,
     5170.011184875542
    ],
    [
     3850.396561755392,
     4800.068309927973
    ],
    [
     4568.4522025280785,
     4043.624543362746
    ],
    [
     1854.2592822219913,
     4300.970884120742
    ],
    [
     2782.5012048909603,
     4448.702342931263
    ],
    [
     3285.1594430939886,
     3893.6709404949443
    ],
    [
     1200.7146179842218,
     3557.6052098078944
    ],
    [
     1372.5627597027376,
     2631.290940679209
    ],
    [
     1651.7784662458446,
     1586.1202897693122
    ],
    [
     5122.893308243611,
     2605.4212776734303
    ],
    [
     2695.886730299905,
     1055.6228456532735
    ],
    [
     2008.992647030276,
     3418.2341579684007
    ],
    [
     2242.4673863093685,
     2524.4925770598315
    ],
    [
     2886.532657795172,
     1524.7937070941102
    ],
    [
     3774.0815704208007,
     756.0370280694107
    ],
    [
     4505.8991201359495,
     3337.021823846991
    ],
    [
     2626.591801190707,
     3280.297641243888
    ],
    [
     3179.323685130754,
     3003.3069878483207
    ],
    [
     3246.5682860108614,
     2170.890706433129
    ],
    [
     3873.770009450207,
     3282.155348807217
    ],
    [
     3423.1713917886345,
     1610.9199229069468
    ],
    [
     4325.092561254082,
     1165.5733161824999
    ],
    [
     4469.374683661742,
     2386.7043183201454
    ],
    [
     4093.24830990949,
     2463.894849007238
    ],
    [
     4202.835092778523,
     1738.7855920448903
    ],
    [
     2232.39823916485,
     1816.0950028595405
    ],
    [
     2218.7678392194243,
     3861.2125989980414
    ],
    [
     4052.1962681608497,
     4115.332681203994
    ],
    [
     4899.674893707521,
     5332.294427266375
    ],
    [
     811.3667972512984,
     4558.10235703196
    ],
    [
     6006.813517000816,
     3230.2193476638363
    ],
    [
     2946.923873477834,
     245.21032169594054
    ],
    [
     4918.987179977937,
     1758.215484642271
    ],
    [
     1208.6195220001814,
     2003.9160362911018
    ]
   ]
  },
  "properties": {
   "classification": {
    "name": "Xenium_landmarks",
    "colorRGB": -1
   },
   "isLocked": false
  }
 }
]