[
 {
  "type": "Feature",
  "id": "annotation",
  "geometry": {
   "type": "Point",
   "coordinates": [
    [
     5804.9999011442505,
     2162.129566253434
    ],
    [
     5420.29887881656,
     1585.5630931250632
    ],
    [
     5000.072134089558,
     1001.8798157791963
    ],
    [
     4604.489349618771,
     643.658636194699
    ],
    [
     4944.745882927426,
     1492.5161100610915
    ],
    [
     4110.985655073002,
     277.92383930217255
    ],
    [
     3483.496574788484,
     564.4071260688
    ],
    [
     3866.3394246729194,
     1394.7564225401986
    ],
    [
     2860.037623324956,
     160.584435148984
    ],
    [
     2323.8829889212493,
     229.43975804640223
    ],
    [
     2260.2547321102365,
     842.6122896850987
    ],
    [
     1152.9874612812296,
     698.1100621148637
    ],
    [
     1682.0699050095207,
     1777.054166952286
    ],
    [
     1073.6498056804642,
     1390.431097095593
    ],
    [
     1199.8327348946643,
     2239.0138175187203
    ],
    [
     289.42640761874804,
     2734.088060183138
    ],
    [
     1079.367854315783,
     3113.376379463788
    ],
    [
     1817.451579681373,
     2847.8954222779585
    ],
    [
     305.5406341802305,
     3566.1901231609586
    ],
    [
     712.900617378626,
     3908.7101639659854
    ],
    [
     395.25570399333776,
     4330.252888429269
    ],
    [
     4852.224535421115,
     2043.5640154046298
    ],
    [
     3062.5225860866426,
     1133.409658390301
    ],
    [
     2719.3177674856706,
     1771.1879667161338
    ],
    [
     2264.360383146062,
     2061.5075985271415
    ],
    [
     3800.504892834149,
     1993.3804359724124
    ],
    [
     2949.9921208929118,
     2888.9308838741827
    ],
    [
     2352.71815906952,
     3263.407350828785
    ],
    [
     5879.119107888929,
     3074.8208644610204
    ],
    [
     4136.0158341513015,
     2407.112775493219
    ],
    [
     4863.333018447849,
     2973.146551929614
    ],
    [
     5643.572498190617,
     3826.286583248103
    ],
    [
     2988.2758002687706,
     2150.3708836877313
    ],
    [
     751.123639364793,
     5213.854937429099
    ],
    [
     2834.6178765158593,
     6126.028580266512
    ],
    [
     3765.0545310313923,
     3319.684506159059
    ],
    [
     4771.960351311899,
     3470.2619172349587
    ],
    [
     1750.231151370585,
     3708.705238613623
    ],
    [
     5500.534330180413,
     4494.635082643958
    ],
    [
     3747.4438094769944,
     4322.981733894748
    ],
    [
     4877.264808453539,
     5143.4163704940065
    ],
    [
     2745.17361127752,
     4299.378411588091
    ],
    [
     1112.7840686969002,
     4251.747214255774
    ],
    [
     1571.2922519093254,
     4674.142291620738
    ],
    [
     1256.3023528941358,
     5597.65082105935
    ],
    [
     3433.80327866284,
     4600.9034272529025
    ],
    [
     559.2399315479167,
     1533.1385594436072
    ],
    [
     3986.0514041946362,
     5856.601334419534
    ],
    [
     3891.3923270369237,
     5993.969986682694
    ],
    [
     2438.807023022091,
     5506.603973108838
    ],
    [
     4644.338852850304,
     4181.354586282595
    ],
    [
     3874.1194438923553,
     5078.320379148912
    ],
    [
     2839.439711709745,
     5088.109809868191
    ],
    [
     1883.1489311139676,
     5377.1566732487645
    ],
    [
     3112.468206294642,
     3644.020088199259
    ],
    [
     4229.238008009344,
     4540.932825717346
    ],
    [
     3596.9410310495377,
     2492.5700465986065
    ],
    [
     3803.256624350858,
     3714.8910348759828
    ],
    [
     1945.1743881183372,
     1167.7079172728752
    ],
    [
     2231.9879992695714,
     4418.287023216706
    ],
    [
     3413.228209164724,
     5319.896308391218
    ]
   ]
  },
  "properties": {
   "classification": {
    "name": "Xenium_landmarks",
    "colorRGB": -1
   },
   "isLocked": false
  }
 }
]