[
 {
  "type": "Feature",
  "id": "annotation",
  "geometry": {
   "type": "Point",
   "coordinates": [
    [
     3702.550862218554,
     2015.89203350084
    ],
    [
     4461.270215821407,
     2125.0230661392015
    ],
    [
     4533.758345608528,
     1383.9585028258175
    ],
    [
     4260.616755185046,
     1293.984471281577
    ],
    [
     4133.357063381653,
     828.3165822538531
    ],
    [
     4014.7521330270574,
     696.9182344194817
    ],
    [
     3607.3786249947466,
     573.6621892295216
    ],
    [
     2913.5255671494215,
     388.39928625794334
    ],
    [
     3281.314513060251,
     363.199481989517
    ],
    [
     2685.322591312658,
     459.42185561430006
    ],
    [
     2381.4435029253095,
     406.20911296425925
    ],
    [
     2067.5143195272417,
     335.3528471310718
    ],
    [
     1319.0455441819863,
     824.2172592862179
    ],
    [
     1188.1146946355632,
     807.2513248124502
    ],
    [
     1418.7053034742983,
     1153.259552215972
    ],
    [
     1307.9911043946881,
     1267.7963211676572
    ],
    [
     1424.3442893185181,
     1640.819058644228
    ],
    [
     1244.2099520869758,
     1645.180578556021
    ],
    [
     490.09003010150803,
     1672.2494857585878
    ],
    [
     455.1640111168502,
     2280.2784080623815
    ],
    [
     1037.9394993357173,
     2772.3342849394758
    ],
    [
     212.2082609066743,
     3046.719977174402
    ],
    [
     337.1832971552706,
     3921.293309251801
    ],
    [
     588.3238875016207,
     4387.255121330593
    ],
    [
     1107.0105670069106,
     4842.084289715968
    ],
    [
     1537.414037008576,
     5389.962539126536
    ],
    [
     2605.591876203983,
     5279.163774022495
    ],
    [
     2727.7191233051103,
     5692.396478854109
    ],
    [
     3560.2764252882894,
     5249.760343620284
    ],
    [
     3830.599579500793,
     5041.456833275131
    ],
    [
     4652.404884946903,
     2480.2861585553446
    ],
    [
     2896.5680052197367,
     1397.9285970212995
    ],
    [
     3081.5743207640767,
     1658.0482685275672
    ],
    [
     3444.9210975091205,
     1514.7519026623231
    ],
    [
     3560.9246082755712,
     1821.5683319183627
    ],
    [
     2198.6873889042176,
     1138.387544448377
    ],
    [
     2106.1409589326436,
     1175.716607423682
    ],
    [
     4169.060799857482,
     4528.2056767394815
    ],
    [
     4151.047715260638,
     4310.218704128618
    ],
    [
     4566.099855151806,
     3886.5385275612807
    ],
    [
     4807.677560921541,
     3612.9321682289906
    ],
    [
     4681.2410995968385,
     3248.814328911006
    ],
    [
     1349.4585551629334,
     2170.700588474971
    ],
    [
     1066.2624707901819,
     2182.2026883441
    ],
    [
     664.1114151182799,
     3440.1267876730676
    ],
    [
     1374.9697920121969,
     3848.8103140972057
    ],
    [
     2224.179193434754,
     4108.666330378569
    ],
    [
     2138.194987879067,
     4660.972856066574
    ],
    [
     2789.5728070703385,
     4380.581964683284
    ],
    [
     3016.762293654285,
     4207.383023834004
    ],
    [
     3421.0897534686237,
     3913.852021926127
    ],
    [
     4006.778057373239,
     3443.3366889984336
    ],
    [
     3978.231736347423,
     2882.9566573916045
    ],
    [
     3516.7550266865637,
     2849.405894617457
    ],
    [
     2745.724838019597,
     2123.5328059695635
    ],
    [
     2063.980164963687,
     2110.935453161058
    ],
    [
     1907.5856560223895,
     2727.914767035552
    ],
    [
     1347.5886794064354,
     3323.194593893062
    ],
    [
     2592.647190440077,
     3273.6546053268385
    ],
    [
     3142.799553834422,
     3370.287210610544
    ]
   ]
  },
  "properties": {
   "classification": {
    "name": "Xenium_landmarks",
    "colorRGB": -1
   },
   "isLocked": false
  }
 }
]