[
 {
  "type": "Feature",
  "id": "annotation",
  "geometry": {
   "type": "Point",
   "coordinates": [
    [
     462.07797490549603,
     4017.5532088953414
    ],
    [
     657.0922309942207,
     3882.9540992445045
    ],
    [
     1028.824178777213,
     5016.812907297365
    ],
    [
     1731.6536358065914,
     5431.667957173891
    ],
    [
     2490.059213443567,
     5388.95851597638
    ],
    [
     2490.75333032847,
     5544.132546282318
    ],
    [
     3390.68106389998,
     5510.1844026035105
    ],
    [
     4006.5315299910876,
     5432.312818126129
    ],
    [
     4689.516594793944,
     4660.418959657342
    ],
    [
     4740.79923401488,
     4055.190355243183
    ],
    [
     4934.804993688622,
     3912.1812997108595
    ],
    [
     5081.6589478740425,
     3488.6892180202854
    ],
    [
     5161.209678148467,
     2756.287530828551
    ],
    [
     5111.496377141274,
     2929.0800663898876
    ],
    [
     5118.147759048785,
     2617.0671087130836
    ],
    [
     4731.164712377928,
     2694.4740204308
    ],
    [
     4922.572642531143,
     1991.7094492085773
    ],
    [
     4838.439264055231,
     1965.8540387559449
    ],
    [
     4521.390126648176,
     1920.66903658722
    ],
    [
     4383.740186784883,
     1105.7776912699799
    ],
    [
     4307.960484742819,
     1300.937970124228
    ],
    [
     4039.9481084104414,
     703.4609169055556
    ],
    [
     3859.3143270163337,
     714.2642869763005
    ],
    [
     3705.273951039419,
     536.885250792814
    ],
    [
     2686.638269332935,
     209.70594089151732
    ],
    [
     2894.366803363906,
     318.3144357332402
    ],
    [
     2007.6905836688802,
     310.1818566268746
    ],
    [
     1523.9529836779707,
     583.2290614602915
    ],
    [
     1459.3688075832865,
     813.9593119579647
    ],
    [
     829.6069218932732,
     1675.1943846545535
    ],
    [
     1425.370921435108,
     2380.5766540931922
    ],
    [
     531.5655010016633,
     2618.306351399201
    ],
    [
     327.1452168492388,
     3346.2585494531863
    ],
    [
     360.23207497393287,
     3172.5529462845184
    ],
    [
     1239.3920561175364,
     3191.6373758679733
    ],
    [
     1360.0391422274593,
     2873.2880474098447
    ],
    [
     1704.2542387470407,
     3940.5526044066905
    ],
    [
     1409.2505663204774,
     4047.7664471995786
    ],
    [
     1773.6313973755196,
     4254.266003489628
    ],
    [
     2529.1947088387324,
     4292.002639352006
    ],
    [
     2473.684387022006,
     4406.09047962504
    ],
    [
     3675.148797001629,
     4669.331676136039
    ],
    [
     3167.3768078863854,
     4414.933678504105
    ],
    [
     3299.5308681832184,
     3945.5492664331446
    ],
    [
     4301.01907736384,
     4247.615907325627
    ],
    [
     3872.817161925527,
     3364.015024193833
    ],
    [
     2545.8459251788995,
     3531.5769609439326
    ],
    [
     1914.8864196621666,
     3000.3547734497665
    ],
    [
     2120.6475902498537,
     3030.5525785690606
    ],
    [
     4454.977935361921,
     2708.6476505582777
    ],
    [
     2932.693520591164,
     3004.85131337964
    ],
    [
     3511.9778545176673,
     2826.793852575071
    ],
    [
     3964.219251481429,
     2289.4334069714864
    ],
    [
     1947.1878070076773,
     2191.9534048575406
    ],
    [
     3117.5609294756896,
     2131.7241479862037
    ],
    [
     1357.197649181186,
     1669.936883129139
    ],
    [
     1634.6283421118055,
     1498.951284975043
    ],
    [
     2234.1343325374214,
     1192.3936809967954
    ],
    [
     3046.8302146603446,
     953.8847397619099
    ],
    [
     3705.9836179351178,
     1413.9781997278596
    ]
   ]
  },
  "properties": {
   "classification": {
    "name": "Xenium_landmarks",
    "colorRGB": -1
   },
   "isLocked": false
  }
 }
]