[
 {
  "type": "Feature",
  "id": "annotation",
  "geometry": {
   "type": "Point",
   "coordinates": [
    [
     6036.692356352989,
     2664.633875697485
    ],
    [
     6019.51764097175,
     2080.5660731789894
    ],
    [
     5655.1617428512045,
     1401.6378038344176
    ],
    [
     5161.459281957326,
     892.8998903291562
    ],
    [
     4629.092775670292,
     494.65817032322775
    ],
    [
     4150.007252534196,
     574.9534917570772
    ],
    [
     3563.328150639009,
     298.48937738872735
    ],
    [
     2982.1281583230666,
     297.73078470713097
    ],
    [
     2767.289290634257,
     284.3471953547694
    ],
    [
     1797.1411038794656,
     640.812878608489
    ],
    [
     1182.8641013133706,
     1122.4284314378415
    ],
    [
     635.6618454249272,
     1994.5597978692028
    ],
    [
     491.03003906375864,
     2788.1535667521566
    ],
    [
     545.8799576111938,
     3706.847777250561
    ],
    [
     737.440397418627,
     4425.685617436126
    ],
    [
     1410.6297539461257,
     5175.96377781174
    ],
    [
     1914.399004746199,
     5643.42646446096
    ],
    [
     2823.000664949369,
     5921.091643726285
    ],
    [
     3578.696264558997,
     5668.262105213507
    ],
    [
     4209.613616703527,
     5789.271889229865
    ],
    [
     4827.05748930727,
     5329.514934335957
    ],
    [
     5657.4149441719055,
     4718.2821227228405
    ],
    [
     5966.753106107296,
     4201.067475128235
    ],
    [
     6071.2426896593415,
     3665.005406569274
    ],
    [
     6182.371943781729,
     2929.123040735341
    ],
    [
     5259.787012427986,
     5013.314028029286
    ],
    [
     5267.767961444952,
     2246.5819853149246
    ],
    [
     4364.51903134005,
     2903.0382795656355
    ],
    [
     3806.262248388728,
     3698.2819306197516
    ],
    [
     4681.939276806363,
     3920.8263768715688
    ],
    [
     4214.099316274981,
     5135.897687650297
    ],
    [
     4019.582133174216,
     4264.926368760358
    ],
    [
     1389.553741148055,
     4048.7486921659274
    ],
    [
     1419.5998678881097,
     4817.592947431371
    ],
    [
     2015.8916985147732,
     4968.861029219161
    ],
    [
     2468.7923669576276,
     4266.144963180538
    ],
    [
     2705.1051660354756,
     5009.07667085638
    ],
    [
     3259.395630937955,
     4727.22745885721
    ],
    [
     1456.3061083522614,
     3270.7122483240005
    ],
    [
     3394.946208033908,
     2678.6061116399574
    ],
    [
     2176.751356929474,
     3465.741178017646
    ],
    [
     970.629369598191,
     2529.873928031892
    ],
    [
     5141.167776252175,
     3101.8475805349635
    ],
    [
     1709.4745202114357,
     1743.5287193727684
    ],
    [
     1712.7190854362902,
     2601.091636109941
    ],
    [
     2520.711531452799,
     886.3195223292472
    ],
    [
     3694.2484861227263,
     873.7728068269174
    ],
    [
     4432.606748535305,
     1225.6131693333812
    ],
    [
     2840.1416124238294,
     3528.2724617357467
    ],
    [
     3983.1136337776206,
     2283.7480870819536
    ],
    [
     2339.938705263015,
     1731.1133471891992
    ],
    [
     4679.388241406724,
     4511.68964330781
    ],
    [
     2434.802316174417,
     2508.029251522556
    ],
    [
     3404.6823510019203,
     1476.1433452164276
    ],
    [
     3205.795714986048,
     2018.7123080772737
    ],
    [
     4830.771474457947,
     1627.4895428887226
    ],
    [
     2303.7866847416385,
     3249.9822231263724
    ],
    [
     3153.2323482573006,
     4301.719096070854
    ],
    [
     2112.867141188554,
     1142.2128915064895
    ],
    [
     3623.2867537042853,
     3124.580567024185
    ]
   ]
  },
  "properties": {
   "classification": {
    "name": "Xenium_landmarks",
    "colorRGB": -1
   },
   "isLocked": false
  }
 }
]