[
 {
  "type": "Feature",
  "id": "annotation",
  "geometry": {
   "type": "Point",
   "coordinates": [
    [
     2276.939503239959,
     5041.049822726187
    ],
    [
     1948.8926547656251,
     4989.417223782088
    ],
    [
     1353.685630650374,
     4707.970245127209
    ],
    [
     1491.6889863132376,
     4838.940486406103
    ],
    [
     1076.364861443291,
     4429.348078807612
    ],
    [
     757.648737391912,
     3986.716581756245
    ],
    [
     748.0216829676501,
     3494.43098541987
    ],
    [
     730.3939517084939,
     2984.1926427988374
    ],
    [
     3340.9670864287255,
     4419.003657207554
    ],
    [
     3919.112623017755,
     4574.477288631942
    ],
    [
     3905.3552442149753,
     3900.335001782772
    ],
    [
     4508.414776965577,
     3589.608477331981
    ],
    [
     4934.0913031587515,
     2681.7388463507045
    ],
    [
     5223.068583910946,
     3415.107388374994
    ],
    [
     3732.739154976826,
     3013.905168099048
    ],
    [
     4108.245034755407,
     2272.3338794726133
    ],
    [
     4791.19683869192,
     2091.4184822287607
    ],
    [
     5092.4238742086645,
     1564.0091966996501
    ],
    [
     5411.714771395429,
     2830.2149135498435
    ],
    [
     4958.248768228658,
     4318.1371656046285
    ],
    [
     4521.672402696066,
     1309.4374518175343
    ],
    [
     3787.5266157934334,
     1073.1936401834946
    ],
    [
     3685.316823149535,
     892.294369037221
    ],
    [
     3620.6009704391486,
     1715.2264862445463
    ],
    [
     3591.6452494760506,
     2187.2005510876693
    ],
    [
     4183.19805232863,
     651.3392056657871
    ],
    [
     3273.197318114711,
     512.2885888406505
    ],
    [
     2636.1815299432737,
     412.79514480223503
    ],
    [
     2448.868922480714,
     378.1334136922335
    ],
    [
     2897.389045214678,
     1150.3645244638678
    ],
    [
     2706.724404043999,
     1247.6293668573412
    ],
    [
     1933.503137801938,
     798.8043994788617
    ],
    [
     2787.5683520704956,
     1804.0712804180419
    ],
    [
     2933.8440182709824,
     2388.2120780682353
    ],
    [
     2720.3574623466566,
     2833.3254349817503
    ],
    [
     2635.7651715533398,
     2965.975470396318
    ],
    [
     2617.907594559468,
     3659.776028808339
    ],
    [
     1668.9566714657624,
     1331.3228608650627
    ],
    [
     1508.0903163728387,
     789.3706248802763
    ],
    [
     1034.6507281473284,
     1062.386910748928
    ],
    [
     1232.4231917123539,
     1791.8457523093045
    ],
    [
     586.0257648246231,
     1755.5841794526884
    ],
    [
     464.4821165246646,
     2409.64852780728
    ],
    [
     2089.927799837764,
     4560.810335262208
    ],
    [
     2516.3242763765816,
     4182.807485363533
    ],
    [
     3274.8920679156563,
     3964.6255780365364
    ],
    [
     1587.4102840666367,
     4330.5882035713
    ],
    [
     1505.273816536275,
     2371.3331443474294
    ],
    [
     2234.3204960063995,
     1896.2734504207647
    ],
    [
     2507.146625046814,
     2497.868984913875
    ],
    [
     1610.7106844604457,
     2909.078845298466
    ],
    [
     1411.5343063473354,
     3374.319553413906
    ],
    [
     1823.9673904662986,
     3372.9203360151223
    ],
    [
     1913.7424878094746,
     3941.9317165470643
    ],
    [
     3054.805547893517,
     3411.9645376556873
    ],
    [
     3039.615082025539,
     2583.6324888496106
    ],
    [
     3817.027892899167,
     4926.667616894257
    ],
    [
     3653.3759320534086,
     382.7114308467501
    ],
    [
     942.0341005143955,
     2190.074773291642
    ],
    [
     5172.69468625411,
     2181.699043766289
    ]
   ]
  },
  "properties": {
   "classification": {
    "name": "Xenium_landmarks",
    "colorRGB": -1
   },
   "isLocked": false
  }
 }
]