[
 {
  "type": "Feature",
  "id": "annotation",
  "geometry": {
   "type": "Point",
   "coordinates": [
    [
     4944.353780513414,
     4904.615531415293
    ],
    [
     4376.157181320395,
     5190.3097376100295
    ],
    [
     4021.1093828002154,
     5319.5650419470185
    ],
    [
     3589.1959893065255,
     5375.76580982126
    ],
    [
     2841.5500421218658,
     5338.913998691062
    ],
    [
     2034.1652744531664,
     5217.882244481342
    ],
    [
     1488.0800442068053,
     4938.423510032145
    ],
    [
     1050.903938786261,
     4170.735808595734
    ],
    [
     547.1532220285153,
     3622.659733847985
    ],
    [
     488.04537027345316,
     2915.0915544478553
    ],
    [
     689.7820371310195,
     2361.817648529211
    ],
    [
     809.8967166806552,
     1861.8237603146638
    ],
    [
     1168.8520784675716,
     1389.9473046493415
    ],
    [
     1707.9211269097605,
     1084.056680476435
    ],
    [
     2161.645591548161,
     522.4783459624061
    ],
    [
     3316.706738339367,
     -28.598315045185245
    ],
    [
     2748.267190847565,
     402.26404916395734
    ],
    [
     4069.3192904239477,
     513.8112252842967
    ],
    [
     4718.139719754464,
     798.4346671951669
    ],
    [
     5109.316483036361,
     1104.2510136731976
    ],
    [
     5243.531081174264,
     1320.6793953158283
    ],
    [
     5621.334404471366,
     1760.7026221164406
    ],
    [
     5874.732603511377,
     2676.120960035433
    ],
    [
     5855.42286020017,
     3351.7523690200464
    ],
    [
     5789.647401695265,
     3690.9690869998662
    ],
    [
     5634.191567113074,
     3904.9525380021028
    ],
    [
     5504.4019017747105,
     4221.665706948763
    ],
    [
     5183.86574288618,
     4599.297113772506
    ],
    [
     2056.2348779608305,
     2242.412285411768
    ],
    [
     2045.7597128615967,
     3014.19254735111
    ],
    [
     3366.1025434285475,
     3962.430992651385
    ],
    [
     4191.259511598819,
     1663.1291283028254
    ],
    [
     2171.8584874451626,
     4370.810302130565
    ],
    [
     4598.397049818519,
     2000.500644319576
    ],
    [
     2991.129492885751,
     1158.7751395375217
    ],
    [
     2098.2169768396657,
     1396.8157583924096
    ],
    [
     4457.010867103454,
     4238.448806870974
    ],
    [
     1548.0738139628731,
     3413.9814431353807
    ],
    [
     3579.0180680037183,
     2536.7787661411794
    ],
    [
     2698.866530415583,
     1713.5892111421947
    ],
    [
     1657.344369291771,
     3865.750207190834
    ],
    [
     2922.397500913123,
     4774.945066238017
    ],
    [
     4578.812679493407,
     2633.6696049930224
    ],
    [
     3515.4593589186966,
     4526.7613417802295
    ],
    [
     2822.2985539759507,
     3506.486284554423
    ],
    [
     4099.142071945522,
     3653.0613017271585
    ],
    [
     2714.873306161776,
     2402.086170563123
    ],
    [
     5115.7017005270045,
     3346.6718127336935
    ],
    [
     3232.134596187344,
     3047.5509968045294
    ],
    [
     1210.7267030267171,
     2763.860230493744
    ],
    [
     3672.7970976949077,
     1560.7669924457264
    ],
    [
     3724.2961727844754,
     895.3594865420303
    ],
    [
     3708.653105417349,
     3152.266053159706
    ],
    [
     4348.063440205526,
     3124.0367223401854
    ],
    [
     2144.193225189718,
     3609.6646000524506
    ],
    [
     3357.748254335991,
     2058.832982382715
    ],
    [
     5334.728140412357,
     2728.7412262589232
    ],
    [
     1249.419825802642,
     2073.482072446673
    ],
    [
     2691.476385240911,
     4146.794431823225
    ],
    [
     4238.51636941974,
     4847.015291773137
    ]
   ]
  },
  "properties": {
   "classification": {
    "name": "Xenium_landmarks",
    "colorRGB": -1
   },
   "isLocked": false
  }
 }
]