[
 {
  "type": "Feature",
  "id": "annotation",
  "geometry": {
   "type": "Point",
   "coordinates": [
    [
     6359.8041816057585,
     3397.4999794211103
    ],
    [
     6332.006291469571,
     2890.2776177183564
    ],
    [
     6001.050627075794,
     1998.7599243550164
    ],
    [
     5733.951081105185,
     1240.1939340196432
    ],
    [
     5054.810472391532,
     673.0568137981154
    ],
    [
     4135.225728666018,
     334.8388148777723
    ],
    [
     4315.341326423092,
     589.8438630977256
    ],
    [
     3189.457576192679,
     217.27044800156577
    ],
    [
     2769.6548323574507,
     626.7305294930198
    ],
    [
     2388.5652281613375,
     385.9270431017486
    ],
    [
     1621.4394495393653,
     733.9101377499596
    ],
    [
     1479.2053119451637,
     1360.5935599772372
    ],
    [
     662.1770442946176,
     1957.016138357428
    ],
    [
     1230.1226806782563,
     2700.34154386557
    ],
    [
     427.1281791896376,
     3165.9708424396504
    ],
    [
     1537.0403210853094,
     4186.063407473609
    ],
    [
     675.3937262571005,
     3855.1809877401297
    ],
    [
     1415.3023120470475,
     5089.011398513755
    ],
    [
     2238.3718404407578,
     5415.155558815646
    ],
    [
     3372.272089265642,
     5600.092889058604
    ],
    [
     4464.386329004772,
     5439.5002331177975
    ],
    [
     5420.068092136204,
     5079.821155423449
    ],
    [
     5961.807969414196,
     4408.007167091536
    ],
    [
     5571.215168347058,
     3846.17922699509
    ],
    [
     4193.301908261158,
     4686.524108368665
    ],
    [
     964.81942530986,
     1344.9248691990958
    ],
    [
     4723.564755661115,
     2828.6705058826187
    ],
    [
     3341.958854499269,
     4734.296198244601
    ],
    [
     2005.8679118272698,
     4437.503462277022
    ],
    [
     4298.504358135978,
     3992.1075876618265
    ],
    [
     2791.251562310192,
     3925.1679235299603
    ],
    [
     1186.1704322727066,
     3355.309331082088
    ],
    [
     1263.3823486391693,
     1958.8195165125974
    ],
    [
     5528.206720436596,
     3069.419457137955
    ],
    [
     5019.7605489928355,
     2143.4639597554715
    ],
    [
     5032.1111305751865,
     1314.0402611262075
    ],
    [
     1597.5633241727146,
     3353.667251883103
    ],
    [
     2304.6968534634325,
     2878.306007511333
    ],
    [
     2943.6447277507255,
     2624.708776457527
    ],
    [
     4024.1051982719723,
     3217.4431976295823
    ],
    [
     3070.0838105133535,
     3425.322465597345
    ],
    [
     4701.752542852534,
     3403.4798976728207
    ],
    [
     2248.671766573884,
     2072.7028142125682
    ],
    [
     1790.5201546026096,
     2622.3518776313535
    ],
    [
     3505.0902694090382,
     2592.457679864769
    ],
    [
     3030.4227923689646,
     1529.0407576928737
    ],
    [
     4226.151222571521,
     1828.6474290814951
    ],
    [
     3676.516146291613,
     1103.8392036387088
    ],
    [
     2420.6561235394697,
     1561.9773831738753
    ],
    [
     3596.3833282235373,
     2077.833123986523
    ],
    [
     2240.0794348891927,
     3460.5420726448533
    ],
    [
     3844.583707664753,
     3952.8057777707904
    ],
    [
     2135.730046136024,
     1080.4893508049809
    ],
    [
     4029.049189287274,
     2556.42452229871
    ],
    [
     2491.7521285554517,
     4889.930380751415
    ]
   ]
  },
  "properties": {
   "classification": {
    "name": "Xenium_landmarks",
    "colorRGB": -1
   },
   "isLocked": false
  }
 }
]